[
  {
    "OBJECT_NAME": "STARLINK-3835",
    "OBJECT_ID": "22049AB",
    "EPOCH": "2025-11-11T01:00:27.687168",
    "MEAN_MOTION": 15.08838678,
    "ECCENTRICITY": 0.0001165,
    "INCLINATION": 53.2161,
    "RA_OF_ASC_NODE": 221.9957,
    "ARG_OF_PERICENTER": 85.806,
    "MEAN_ANOMALY": 274.3066,
    "EPHEMERIS_TYPE": 0,
    "CLASSIFICATION_TYPE": "U",
    "NORAD_CAT_ID": 52476,
    "ELEMENT_SET_NO": 999,
    "REV_AT_EPOCH": 19571,
    "BSTAR": 0.00018007,
    "MEAN_MOTION_DOT": 2.579e-05,
    "MEAN_MOTION_DDOT": 0.0,
    "TLE_LINE1": "1 52476U 22049AB  25315.04198712  .00002579  00000+0  18007-3 0  9990",
    "TLE_LINE2": "2 52476  53.2161 221.9957 0001165  85.8060 274.3066 15.08838678195714",
    "COMMENT": "Grouped by shell and plane from TLE"
  },
  {
    "OBJECT_NAME": "STARLINK-3860",
    "OBJECT_ID": "22049AC",
    "EPOCH": "2025-11-11T03:48:37.028160",
    "MEAN_MOTION": 15.08841917,
    "ECCENTRICITY": 0.0001509,
    "INCLINATION": 53.2164,
    "RA_OF_ASC_NODE": 221.2266,
    "ARG_OF_PERICENTER": 83.7822,
    "MEAN_ANOMALY": 276.3342,
    "EPHEMERIS_TYPE": 0,
    "CLASSIFICATION_TYPE": "U",
    "NORAD_CAT_ID": 52477,
    "ELEMENT_SET_NO": 999,
    "REV_AT_EPOCH": 19573,
    "BSTAR": 0.0002257,
    "MEAN_MOTION_DOT": 3.306e-05,
    "MEAN_MOTION_DDOT": 0.0,
    "TLE_LINE1": "1 52477U 22049AC  25315.15876190  .00003306  00000+0  22570-3 0  9995",
    "TLE_LINE2": "2 52477  53.2164 221.2266 0001509  83.7822 276.3342 15.08841917195730",
    "COMMENT": "Grouped by shell and plane from TLE"
  },
  {
    "OBJECT_NAME": "STARLINK-3878",
    "OBJECT_ID": "22049AE",
    "EPOCH": "2025-11-11T03:27:24.678432",
    "MEAN_MOTION": 15.08847081,
    "ECCENTRICITY": 0.0001711,
    "INCLINATION": 53.2184,
    "RA_OF_ASC_NODE": 221.2943,
    "ARG_OF_PERICENTER": 82.7203,
    "MEAN_ANOMALY": 277.3984,
    "EPHEMERIS_TYPE": 0,
    "CLASSIFICATION_TYPE": "U",
    "NORAD_CAT_ID": 52479,
    "ELEMENT_SET_NO": 999,
    "REV_AT_EPOCH": 19573,
    "BSTAR": 0.00015856,
    "MEAN_MOTION_DOT": 2.237e-05,
    "MEAN_MOTION_DDOT": 0.0,
    "TLE_LINE1": "1 52479U 22049AE  25315.14403563  .00002237  00000+0  15856-3 0  9997",
    "TLE_LINE2": "2 52479  53.2184 221.2943 0001711  82.7203 277.3984 15.08847081195734",
    "COMMENT": "Grouped by shell and plane from TLE"
  },
  {
    "OBJECT_NAME": "STARLINK-3813",
    "OBJECT_ID": "22049AH",
    "EPOCH": "2025-11-11T03:16:48.040032",
    "MEAN_MOTION": 15.08900916,
    "ECCENTRICITY": 0.0001503,
    "INCLINATION": 53.2174,
    "RA_OF_ASC_NODE": 221.3265,
    "ARG_OF_PERICENTER": 56.0365,
    "MEAN_ANOMALY": 304.077,
    "EPHEMERIS_TYPE": 0,
    "CLASSIFICATION_TYPE": "U",
    "NORAD_CAT_ID": 52482,
    "ELEMENT_SET_NO": 999,
    "REV_AT_EPOCH": 19449,
    "BSTAR": 0.0,
    "MEAN_MOTION_DOT": -0.00010473,
    "MEAN_MOTION_DDOT": 0.0,
    "TLE_LINE1": "1 52482U 22049AH  25315.13666713 -.00010473  00000+0 -63977-3 0  9998",
    "TLE_LINE2": "2 52482  53.2174 221.3265 0001503  56.0365 304.0770 15.08900916194497",
    "COMMENT": "Grouped by shell and plane from TLE"
  },
  {
    "OBJECT_NAME": "STARLINK-3875",
    "OBJECT_ID": "22049AJ",
    "EPOCH": "2025-11-11T03:32:42.836064",
    "MEAN_MOTION": 15.08849283,
    "ECCENTRICITY": 0.0001519,
    "INCLINATION": 53.2176,
    "RA_OF_ASC_NODE": 221.2775,
    "ARG_OF_PERICENTER": 90.8734,
    "MEAN_ANOMALY": 269.2432,
    "EPHEMERIS_TYPE": 0,
    "CLASSIFICATION_TYPE": "U",
    "NORAD_CAT_ID": 52483,
    "ELEMENT_SET_NO": 999,
    "REV_AT_EPOCH": 19573,
    "BSTAR": 0.0002356,
    "MEAN_MOTION_DOT": 3.464e-05,
    "MEAN_MOTION_DDOT": 0.0,
    "TLE_LINE1": "1 52483U 22049AJ  25315.14771801  .00003464  00000+0  23560-3 0  9999",
    "TLE_LINE2": "2 52483  53.2176 221.2775 0001519  90.8734 269.2432 15.08849283195732",
    "COMMENT": "Grouped by shell and plane from TLE"
  },
  {
    "OBJECT_NAME": "STARLINK-3913",
    "OBJECT_ID": "22049AL",
    "EPOCH": "2025-11-11T03:22:06.902688",
    "MEAN_MOTION": 15.08840908,
    "ECCENTRICITY": 0.0001353,
    "INCLINATION": 53.2165,
    "RA_OF_ASC_NODE": 221.308,
    "ARG_OF_PERICENTER": 87.1398,
    "MEAN_ANOMALY": 272.9749,
    "EPHEMERIS_TYPE": 0,
    "CLASSIFICATION_TYPE": "U",
    "NORAD_CAT_ID": 52485,
    "ELEMENT_SET_NO": 999,
    "REV_AT_EPOCH": 19449,
    "BSTAR": 0.00018512999999999998,
    "MEAN_MOTION_DOT": 2.66e-05,
    "MEAN_MOTION_DDOT": 0.0,
    "TLE_LINE1": "1 52485U 22049AL  25315.14035767  .00002660  00000+0  18513-3 0  9994",
    "TLE_LINE2": "2 52485  53.2165 221.3080 0001353  87.1398 272.9749 15.08840908194492",
    "COMMENT": "Grouped by shell and plane from TLE"
  },
  {
    "OBJECT_NAME": "STARLINK-3902",
    "OBJECT_ID": "22049AN",
    "EPOCH": "2025-11-11T03:38:01.959648",
    "MEAN_MOTION": 15.0884721,
    "ECCENTRICITY": 0.0001492,
    "INCLINATION": 53.2167,
    "RA_OF_ASC_NODE": 221.3654,
    "ARG_OF_PERICENTER": 89.9945,
    "MEAN_ANOMALY": 270.1218,
    "EPHEMERIS_TYPE": 0,
    "CLASSIFICATION_TYPE": "U",
    "NORAD_CAT_ID": 52487,
    "ELEMENT_SET_NO": 999,
    "REV_AT_EPOCH": 19573,
    "BSTAR": 0.00028660000000000003,
    "MEAN_MOTION_DOT": 4.277e-05,
    "MEAN_MOTION_DDOT": 0.0,
    "TLE_LINE1": "1 52487U 22049AN  25315.15141157  .00004277  00000+0  28660-3 0  9998",
    "TLE_LINE2": "2 52487  53.2167 221.3654 0001492  89.9945 270.1218 15.08847210195737",
    "COMMENT": "Grouped by shell and plane from TLE"
  },
  {
    "OBJECT_NAME": "STARLINK-3914",
    "OBJECT_ID": "22049AR",
    "EPOCH": "2025-11-11T03:00:55.200960",
    "MEAN_MOTION": 15.08847112,
    "ECCENTRICITY": 0.0001383,
    "INCLINATION": 53.2175,
    "RA_OF_ASC_NODE": 221.3736,
    "ARG_OF_PERICENTER": 99.8401,
    "MEAN_ANOMALY": 260.2748,
    "EPHEMERIS_TYPE": 0,
    "CLASSIFICATION_TYPE": "U",
    "NORAD_CAT_ID": 52490,
    "ELEMENT_SET_NO": 999,
    "REV_AT_EPOCH": 19449,
    "BSTAR": 0.00019201,
    "MEAN_MOTION_DOT": 2.77e-05,
    "MEAN_MOTION_DDOT": 0.0,
    "TLE_LINE1": "1 52490U 22049AR  25315.12563890  .00002770  00000+0  19201-3 0  9998",
    "TLE_LINE2": "2 52490  53.2175 221.3736 0001383  99.8401 260.2748 15.08847112194498",
    "COMMENT": "Grouped by shell and plane from TLE"
  },
  {
    "OBJECT_NAME": "STARLINK-3908",
    "OBJECT_ID": "22049AS",
    "EPOCH": "2025-11-11T03:11:31.157664",
    "MEAN_MOTION": 15.08848684,
    "ECCENTRICITY": 0.000136,
    "INCLINATION": 53.216,
    "RA_OF_ASC_NODE": 221.3431,
    "ARG_OF_PERICENTER": 81.5605,
    "MEAN_ANOMALY": 278.5542,
    "EPHEMERIS_TYPE": 0,
    "CLASSIFICATION_TYPE": "U",
    "NORAD_CAT_ID": 52491,
    "ELEMENT_SET_NO": 999,
    "REV_AT_EPOCH": 19449,
    "BSTAR": 0.00030143,
    "MEAN_MOTION_DOT": 4.514e-05,
    "MEAN_MOTION_DDOT": 0.0,
    "TLE_LINE1": "1 52491U 22049AS  25315.13299951  .00004514  00000+0  30143-3 0  9990",
    "TLE_LINE2": "2 52491  53.2160 221.3431 0001360  81.5605 278.5542 15.08848684194493",
    "COMMENT": "Grouped by shell and plane from TLE"
  },
  {
    "OBJECT_NAME": "STARLINK-3916",
    "OBJECT_ID": "22049AT",
    "EPOCH": "2025-11-11T04:25:42.337056",
    "MEAN_MOTION": 15.08855358,
    "ECCENTRICITY": 0.0001403,
    "INCLINATION": 53.2172,
    "RA_OF_ASC_NODE": 221.1123,
    "ARG_OF_PERICENTER": 92.5246,
    "MEAN_ANOMALY": 267.5907,
    "EPHEMERIS_TYPE": 0,
    "CLASSIFICATION_TYPE": "U",
    "NORAD_CAT_ID": 52492,
    "ELEMENT_SET_NO": 999,
    "REV_AT_EPOCH": 19450,
    "BSTAR": 0.00033364,
    "MEAN_MOTION_DOT": 5.028e-05,
    "MEAN_MOTION_DDOT": 0.0,
    "TLE_LINE1": "1 52492U 22049AT  25315.18451779  .00005028  00000+0  33364-3 0  9993",
    "TLE_LINE2": "2 52492  53.2172 221.1123 0001403  92.5246 267.5907 15.08855358194505",
    "COMMENT": "Grouped by shell and plane from TLE"
  },
  {
    "OBJECT_NAME": "STARLINK-3883",
    "OBJECT_ID": "22049AU",
    "EPOCH": "2025-11-11T01:30:51.306048",
    "MEAN_MOTION": 15.08849191,
    "ECCENTRICITY": 0.0001226,
    "INCLINATION": 53.2171,
    "RA_OF_ASC_NODE": 221.6599,
    "ARG_OF_PERICENTER": 86.4621,
    "MEAN_ANOMALY": 273.6511,
    "EPHEMERIS_TYPE": 0,
    "CLASSIFICATION_TYPE": "U",
    "NORAD_CAT_ID": 52493,
    "ELEMENT_SET_NO": 999,
    "REV_AT_EPOCH": 19448,
    "BSTAR": 7.9302e-05,
    "MEAN_MOTION_DOT": 9.75e-06,
    "MEAN_MOTION_DDOT": 0.0,
    "TLE_LINE1": "1 52493U 22049AU  25315.06309382  .00000975  00000+0  79302-4 0  9992",
    "TLE_LINE2": "2 52493  53.2171 221.6599 0001226  86.4621 273.6511 15.08849191194483",
    "COMMENT": "Grouped by shell and plane from TLE"
  },
  {
    "OBJECT_NAME": "STARLINK-3857",
    "OBJECT_ID": "22049AV",
    "EPOCH": "2025-11-11T04:09:48.734208",
    "MEAN_MOTION": 15.08855779,
    "ECCENTRICITY": 0.0001482,
    "INCLINATION": 53.2165,
    "RA_OF_ASC_NODE": 221.1614,
    "ARG_OF_PERICENTER": 77.6091,
    "MEAN_ANOMALY": 282.5067,
    "EPHEMERIS_TYPE": 0,
    "CLASSIFICATION_TYPE": "U",
    "NORAD_CAT_ID": 52494,
    "ELEMENT_SET_NO": 999,
    "REV_AT_EPOCH": 19450,
    "BSTAR": 0.0009644,
    "MEAN_MOTION_DOT": 0.000151,
    "MEAN_MOTION_DDOT": 0.0,
    "TLE_LINE1": "1 52494U 22049AV  25315.17348072  .00015100  00000+0  96440-3 0  9991",
    "TLE_LINE2": "2 52494  53.2165 221.1614 0001482  77.6091 282.5067 15.08855779194504",
    "COMMENT": "Grouped by shell and plane from TLE"
  },
  {
    "OBJECT_NAME": "STARLINK-3884",
    "OBJECT_ID": "22049AY",
    "EPOCH": "2025-11-11T04:20:23.535744",
    "MEAN_MOTION": 15.08851744,
    "ECCENTRICITY": 0.0001186,
    "INCLINATION": 53.2172,
    "RA_OF_ASC_NODE": 221.1289,
    "ARG_OF_PERICENTER": 84.0908,
    "MEAN_ANOMALY": 276.022,
    "EPHEMERIS_TYPE": 0,
    "CLASSIFICATION_TYPE": "U",
    "NORAD_CAT_ID": 52497,
    "ELEMENT_SET_NO": 999,
    "REV_AT_EPOCH": 19450,
    "BSTAR": 0.00026008,
    "MEAN_MOTION_DOT": 3.855e-05,
    "MEAN_MOTION_DDOT": 0.0,
    "TLE_LINE1": "1 52497U 22049AY  25315.18082796  .00003855  00000+0  26008-3 0  9990",
    "TLE_LINE2": "2 52497  53.2172 221.1289 0001186  84.0908 276.0220 15.08851744194500",
    "COMMENT": "Grouped by shell and plane from TLE"
  }
]